{"fetched_at":"2026-07-19T17:31:36.159Z","source":"https://celestrak.org/NORAD/elements/gp.php?NAME=HULIANWANG&FORMAT=JSON","constellation":"guowang","records":[{"OBJECT_NAME":"HULIANWANG DIGUI-44","OBJECT_ID":"2025-162E","EPOCH":"2026-07-19T05:37:17.942016","CLASSIFICATION_TYPE":"U","MEAN_MOTION":13.29318672,"ECCENTRICITY":0.0001436,"INCLINATION":50.0003,"RA_OF_ASC_NODE":150.7517,"ARG_OF_PERICENTER":344.4705,"MEAN_ANOMALY":15.6123,"EPHEMERIS_TYPE":0,"NORAD_CAT_ID":65047,"ELEMENT_SET_NO":999,"REV_AT_EPOCH":4763,"BSTAR":0.000054793766,"MEAN_MOTION_DOT":-9.9e-7,"MEAN_MOTION_DDOT":0},{"OBJECT_NAME":"HULIANWANG DIGUI-45","OBJECT_ID":"2025-162F","EPOCH":"2026-07-19T05:25:24.978720","CLASSIFICATION_TYPE":"U","MEAN_MOTION":13.29327296,"ECCENTRICITY":0.00002696,"INCLINATION":50.0033,"RA_OF_ASC_NODE":150.7931,"ARG_OF_PERICENTER":344.9521,"MEAN_ANOMALY":15.1343,"EPHEMERIS_TYPE":0,"NORAD_CAT_ID":65048,"ELEMENT_SET_NO":999,"REV_AT_EPOCH":4762,"BSTAR":0.000067395725,"MEAN_MOTION_DOT":-9.3e-7,"MEAN_MOTION_DDOT":0},{"OBJECT_NAME":"HULIANWANG DIGUI-46","OBJECT_ID":"2025-162G","EPOCH":"2026-07-19T07:01:40.793664","CLASSIFICATION_TYPE":"U","MEAN_MOTION":13.29327145,"ECCENTRICITY":0.00002442,"INCLINATION":50.0051,"RA_OF_ASC_NODE":150.5309,"ARG_OF_PERICENTER":340.7273,"MEAN_ANOMALY":19.359,"EPHEMERIS_TYPE":0,"NORAD_CAT_ID":65049,"ELEMENT_SET_NO":999,"REV_AT_EPOCH":4763,"BSTAR":0.000070826864,"MEAN_MOTION_DOT":-9.1e-7,"MEAN_MOTION_DDOT":0},{"OBJECT_NAME":"HULIANWANG DIGUI-47","OBJECT_ID":"2025-162H","EPOCH":"2026-07-19T06:49:39.243936","CLASSIFICATION_TYPE":"U","MEAN_MOTION":13.29326781,"ECCENTRICITY":0.00002516,"INCLINATION":50.0015,"RA_OF_ASC_NODE":150.3891,"ARG_OF_PERICENTER":331.6651,"MEAN_ANOMALY":28.4207,"EPHEMERIS_TYPE":0,"NORAD_CAT_ID":65050,"ELEMENT_SET_NO":999,"REV_AT_EPOCH":4763,"BSTAR":0.000074404548,"MEAN_MOTION_DOT":-9e-7,"MEAN_MOTION_DDOT":0},{"OBJECT_NAME":"HULIANWANG DIGUI-48","OBJECT_ID":"2025-162J","EPOCH":"2026-07-19T06:37:36.919200","CLASSIFICATION_TYPE":"U","MEAN_MOTION":13.29327515,"ECCENTRICITY":0.00002592,"INCLINATION":50.0025,"RA_OF_ASC_NODE":150.373,"ARG_OF_PERICENTER":339.79,"MEAN_ANOMALY":20.2962,"EPHEMERIS_TYPE":0,"NORAD_CAT_ID":65051,"ELEMENT_SET_NO":999,"REV_AT_EPOCH":4763,"BSTAR":0.000060881353,"MEAN_MOTION_DOT":-9.6e-7,"MEAN_MOTION_DDOT":0},{"OBJECT_NAME":"HULIANWANG DIGUI-49","OBJECT_ID":"2025-168A","EPOCH":"2026-07-19T06:18:55.661472","CLASSIFICATION_TYPE":"U","MEAN_MOTION":13.29322116,"ECCENTRICITY":0.00082845,"INCLINATION":50.0006,"RA_OF_ASC_NODE":210.9235,"ARG_OF_PERICENTER":203.4667,"MEAN_ANOMALY":156.5828,"EPHEMERIS_TYPE":0,"NORAD_CAT_ID":65106,"ELEMENT_SET_NO":999,"REV_AT_EPOCH":4695,"BSTAR":0.000016096623,"MEAN_MOTION_DOT":-0.00000117,"MEAN_MOTION_DDOT":0},{"OBJECT_NAME":"HULIANWANG DIGUI-50","OBJECT_ID":"2025-168B","EPOCH":"2026-07-19T06:06:49.513536","CLASSIFICATION_TYPE":"U","MEAN_MOTION":13.29321854,"ECCENTRICITY":0.0008874,"INCLINATION":49.9977,"RA_OF_ASC_NODE":210.7926,"ARG_OF_PERICENTER":189.3138,"MEAN_ANOMALY":170.757,"EPHEMERIS_TYPE":0,"NORAD_CAT_ID":65107,"ELEMENT_SET_NO":999,"REV_AT_EPOCH":4695,"BSTAR":0.000031704445,"MEAN_MOTION_DOT":-0.00000109,"MEAN_MOTION_DDOT":0},{"OBJECT_NAME":"HULIANWANG DIGUI-51","OBJECT_ID":"2025-168C","EPOCH":"2026-07-19T07:42:32.175936","CLASSIFICATION_TYPE":"U","MEAN_MOTION":13.29324976,"ECCENTRICITY":0.00101495,"INCLINATION":50.0013,"RA_OF_ASC_NODE":210.5845,"ARG_OF_PERICENTER":188.5481,"MEAN_ANOMALY":171.522,"EPHEMERIS_TYPE":0,"NORAD_CAT_ID":65108,"ELEMENT_SET_NO":999,"REV_AT_EPOCH":4696,"BSTAR":0.000028546416,"MEAN_MOTION_DOT":-0.00000111,"MEAN_MOTION_DDOT":0},{"OBJECT_NAME":"HULIANWANG DIGUI-52","OBJECT_ID":"2025-168D","EPOCH":"2026-07-19T07:30:52.991712","CLASSIFICATION_TYPE":"U","MEAN_MOTION":13.29322879,"ECCENTRICITY":0.00103875,"INCLINATION":50.0007,"RA_OF_ASC_NODE":210.5184,"ARG_OF_PERICENTER":201.1765,"MEAN_ANOMALY":158.8678,"EPHEMERIS_TYPE":0,"NORAD_CAT_ID":65109,"ELEMENT_SET_NO":999,"REV_AT_EPOCH":4696,"BSTAR":0.000034887055,"MEAN_MOTION_DOT":-0.00000108,"MEAN_MOTION_DDOT":0},{"OBJECT_NAME":"HULIANWANG DIGUI-53","OBJECT_ID":"2025-168E","EPOCH":"2026-07-19T05:30:19.751328","CLASSIFICATION_TYPE":"U","MEAN_MOTION":13.29326347,"ECCENTRICITY":0.00089081,"INCLINATION":50.0015,"RA_OF_ASC_NODE":210.7733,"ARG_OF_PERICENTER":191.9444,"MEAN_ANOMALY":168.1218,"EPHEMERIS_TYPE":0,"NORAD_CAT_ID":65110,"ELEMENT_SET_NO":999,"REV_AT_EPOCH":4695,"BSTAR":0.00003029958,"MEAN_MOTION_DOT":-0.0000011,"MEAN_MOTION_DDOT":0},{"OBJECT_NAME":"HULIANWANG DIGUI-54","OBJECT_ID":"2025-168F","EPOCH":"2026-07-19T06:42:46.846368","CLASSIFICATION_TYPE":"U","MEAN_MOTION":13.29326536,"ECCENTRICITY":0.00107395,"INCLINATION":49.9966,"RA_OF_ASC_NODE":210.2334,"ARG_OF_PERICENTER":196.3733,"MEAN_ANOMALY":163.6794,"EPHEMERIS_TYPE":0,"NORAD_CAT_ID":65111,"ELEMENT_SET_NO":999,"REV_AT_EPOCH":4696,"BSTAR":0.000012885837,"MEAN_MOTION_DOT":-0.00000118,"MEAN_MOTION_DDOT":0},{"OBJECT_NAME":"HULIANWANG DIGUI-55","OBJECT_ID":"2025-168G","EPOCH":"2026-07-19T07:06:42.592320","CLASSIFICATION_TYPE":"U","MEAN_MOTION":13.2932282,"ECCENTRICITY":0.00117898,"INCLINATION":49.9971,"RA_OF_ASC_NODE":210.3334,"ARG_OF_PERICENTER":192.365,"MEAN_ANOMALY":167.6935,"EPHEMERIS_TYPE":0,"NORAD_CAT_ID":65112,"ELEMENT_SET_NO":999,"REV_AT_EPOCH":4696,"BSTAR":0.000044610616,"MEAN_MOTION_DOT":-0.00000103,"MEAN_MOTION_DDOT":0},{"OBJECT_NAME":"HULIANWANG DIGUI-56","OBJECT_ID":"2025-168H","EPOCH":"2026-07-19T06:54:46.893600","CLASSIFICATION_TYPE":"U","MEAN_MOTION":13.29322258,"ECCENTRICITY":0.00119718,"INCLINATION":49.9963,"RA_OF_ASC_NODE":210.2663,"ARG_OF_PERICENTER":212.2347,"MEAN_ANOMALY":147.7794,"EPHEMERIS_TYPE":0,"NORAD_CAT_ID":65113,"ELEMENT_SET_NO":999,"REV_AT_EPOCH":4696,"BSTAR":0.000011676773,"MEAN_MOTION_DOT":-0.00000119,"MEAN_MOTION_DDOT":0},{"OBJECT_NAME":"HULIANWANG DIGUI-57","OBJECT_ID":"2025-168J","EPOCH":"2026-07-19T06:30:47.685600","CLASSIFICATION_TYPE":"U","MEAN_MOTION":13.29326474,"ECCENTRICITY":0.00095831,"INCLINATION":49.9991,"RA_OF_ASC_NODE":210.2636,"ARG_OF_PERICENTER":204.4774,"MEAN_ANOMALY":155.5645,"EPHEMERIS_TYPE":0,"NORAD_CAT_ID":65114,"ELEMENT_SET_NO":999,"REV_AT_EPOCH":4697,"BSTAR":0.000012177059,"MEAN_MOTION_DOT":-0.00000118,"MEAN_MOTION_DDOT":0},{"OBJECT_NAME":"HULIANWANG DIGUI-58","OBJECT_ID":"2025-174A","EPOCH":"2026-07-19T07:10:32.380032","CLASSIFICATION_TYPE":"U","MEAN_MOTION":13.24407657,"ECCENTRICITY":0.00018363,"INCLINATION":86.4942,"RA_OF_ASC_NODE":241.1681,"ARG_OF_PERICENTER":100.7662,"MEAN_ANOMALY":259.3679,"EPHEMERIS_TYPE":0,"NORAD_CAT_ID":65164,"ELEMENT_SET_NO":999,"REV_AT_EPOCH":4504,"BSTAR":0.000084348635,"MEAN_MOTION_DOT":5.1e-7,"MEAN_MOTION_DDOT":0},{"OBJECT_NAME":"HULIANWANG DIGUI-59","OBJECT_ID":"2025-174B","EPOCH":"2026-07-19T05:32:40.985088","CLASSIFICATION_TYPE":"U","MEAN_MOTION":13.24407708,"ECCENTRICITY":0.0001924,"INCLINATION":86.4903,"RA_OF_ASC_NODE":241.0695,"ARG_OF_PERICENTER":99.6365,"MEAN_ANOMALY":260.4986,"EPHEMERIS_TYPE":0,"NORAD_CAT_ID":65165,"ELEMENT_SET_NO":999,"REV_AT_EPOCH":4503,"BSTAR":0.000044500376,"MEAN_MOTION_DOT":3.4e-7,"MEAN_MOTION_DDOT":0}]}
