HULIANWANG DIGUI-44     
1 65047U 25162E   26200.23423544 -.00000099  00000+0  54794-4 0  9996
2 65047  50.0003 150.7517 0001436 344.4705  15.6123 13.29318672 47639
HULIANWANG DIGUI-45     
1 65048U 25162F   26200.22598355 -.00000093  00000+0  67396-4 0  9995
2 65048  50.0033 150.7931 0000269 344.9521  15.1343 13.29327296 47627
HULIANWANG DIGUI-46     
1 65049U 25162G   26200.29283326 -.00000091  00000+0  70827-4 0  9993
2 65049  50.0051 150.5309 0000244 340.7273  19.3590 13.29327145 47630
HULIANWANG DIGUI-47     
1 65050U 25162H   26200.28448199 -.00000090  00000+0  74405-4 0  9990
2 65050  50.0015 150.3891 0000251 331.6651  28.4207 13.29326781 47634
HULIANWANG DIGUI-48     
1 65051U 25162J   26200.27612175 -.00000096  00000+0  60881-4 0  9996
2 65051  50.0025 150.3730 0000259 339.7900  20.2962 13.29327515 47636
HULIANWANG DIGUI-49     
1 65106U 25168A   26200.26314423 -.00000117  00000+0  16097-4 0  9991
2 65106  50.0006 210.9235 0008284 203.4667 156.5828 13.29322116 46952
HULIANWANG DIGUI-50     
1 65107U 25168B   26200.25473974 -.00000109  00000+0  31704-4 0  9991
2 65107  49.9977 210.7926 0008874 189.3138 170.7570 13.29321854 46952
HULIANWANG DIGUI-51     
1 65108U 25168C   26200.32120574 -.00000111  00000+0  28546-4 0  9998
2 65108  50.0013 210.5845 0010149 188.5481 171.5220 13.29324976 46965
HULIANWANG DIGUI-52     
1 65109U 25168D   26200.31311333 -.00000108  00000+0  34887-4 0  9994
2 65109  50.0007 210.5184 0010387 201.1765 158.8678 13.29322879 46961
HULIANWANG DIGUI-53     
1 65110U 25168E   26200.22939527 -.00000110  00000+0  30300-4 0  9996
2 65110  50.0015 210.7733 0008908 191.9444 168.1218 13.29326347 46957
HULIANWANG DIGUI-54     
1 65111U 25168F   26200.27970887 -.00000118  00000+0  12886-4 0  9993
2 65111  49.9966 210.2334 0010739 196.3733 163.6794 13.29326536 46967
HULIANWANG DIGUI-55     
1 65112U 25168G   26200.29632630 -.00000103  00000+0  44611-4 0  9992
2 65112  49.9971 210.3334 0011789 192.3650 167.6935 13.29322820 46968
HULIANWANG DIGUI-56     
1 65113U 25168H   26200.28804275 -.00000119  00000+0  11677-4 0  9991
2 65113  49.9963 210.2663 0011971 212.2347 147.7794 13.29322258 46969
HULIANWANG DIGUI-57     
1 65114U 25168J   26200.27138525 -.00000118  00000+0  12177-4 0  9994
2 65114  49.9991 210.2636 0009583 204.4774 155.5645 13.29326474 46971
HULIANWANG DIGUI-58     
1 65164U 25174A   26200.29898588  .00000051  00000+0  84349-4 0  9995
2 65164  86.4942 241.1681 0001836 100.7662 259.3679 13.24407657 45043
HULIANWANG DIGUI-59     
1 65165U 25174B   26200.23102992  .00000034  00000+0  44500-4 0  9993
2 65165  86.4903 241.0695 0001924  99.6365 260.4986 13.24407708 45039
